{
  "type": "FeatureCollection",
  "features": [
    {
      "type": "Feature",
      "properties": {
        "norad_id": 34874,
        "name": "COSMOS 2251 DEB",
        "group": "cosmos-2251-debris",
        "lat": -17.491825271917385,
        "lon": -92.25119950398387,
        "alt_km": 774.3719636043907,
        "timestamp": "2025-12-07T22:37:43.477392+00:00",
        "meta_object_name": "COSMOS 2251 DEB",
        "meta_object_id": "1993-036ACM",
        "meta_epoch": "2025-12-07T00:48:13.955040",
        "meta_mean_motion": 14.36265191,
        "meta_eccentricity": 0.00512926,
        "meta_inclination": 74.0398,
        "meta_ra_of_asc_node": 84.2436,
        "meta_arg_of_pericenter": 111.3403,
        "meta_mean_anomaly": 66.1112,
        "meta_ephemeris_type": 0,
        "meta_classification_type": "U",
        "meta_norad_cat_id": 34874,
        "meta_element_set_no": 999,
        "meta_rev_at_epoch": 86962,
        "meta_bstar": 0.0015421965,
        "meta_mean_motion_dot": 4.55e-05,
        "meta_mean_motion_ddot": 0,
        "tle_line1": "1 34874U 93036ACM 25341.03349485  .00004550  00000+0  15422-2 0  9997",
        "tle_line2": "2 34874  74.0398  84.2436 0051292 111.3403  66.1112 14.36265191869624"
      },
      "geometry": {
        "type": "Point",
        "coordinates": [
          -92.25119950398387,
          -17.491825271917385
        ]
      }
    },
    {
      "type": "Feature",
      "properties": {
        "norad_id": 34875,
        "name": "COSMOS 2251 DEB",
        "group": "cosmos-2251-debris",
        "lat": 31.21387979623616,
        "lon": 177.1862440160369,
        "alt_km": 729.4465018556984,
        "timestamp": "2025-12-07T22:37:43.477402+00:00",
        "meta_object_name": "COSMOS 2251 DEB",
        "meta_object_id": "1993-036ACN",
        "meta_epoch": "2025-12-07T06:43:58.907424",
        "meta_mean_motion": 14.48897353,
        "meta_eccentricity": 0.00160555,
        "meta_inclination": 74.0432,
        "meta_ra_of_asc_node": 168.4427,
        "meta_arg_of_pericenter": 292.4661,
        "meta_mean_anomaly": 246.7772,
        "meta_ephemeris_type": 0,
        "meta_classification_type": "U",
        "meta_norad_cat_id": 34875,
        "meta_element_set_no": 999,
        "meta_rev_at_epoch": 87676,
        "meta_bstar": 0.00075237819,
        "meta_mean_motion_dot": 2.825e-05,
        "meta_mean_motion_ddot": 0,
        "tle_line1": "1 34875U 93036ACN 25341.28054291  .00002825  00000+0  75238-3 0  9998",
        "tle_line2": "2 34875  74.0432 168.4427 0016055 292.4661 246.7772 14.48897353876769"
      },
      "geometry": {
        "type": "Point",
        "coordinates": [
          177.1862440160369,
          31.21387979623616
        ]
      }
    },
    {
      "type": "Feature",
      "properties": {
        "norad_id": 34878,
        "name": "COSMOS 2251 DEB",
        "group": "cosmos-2251-debris",
        "lat": 7.891442059521002,
        "lon": -127.35149483068757,
        "alt_km": 1305.9622796765752,
        "timestamp": "2025-12-07T22:37:43.477413+00:00",
        "meta_object_name": "COSMOS 2251 DEB",
        "meta_object_id": "1993-036ACR",
        "meta_epoch": "2025-12-06T11:56:28.873824",
        "meta_mean_motion": 13.44180688,
        "meta_eccentricity": 0.04352424,
        "meta_inclination": 73.9646,
        "meta_ra_of_asc_node": 57.2251,
        "meta_arg_of_pericenter": 41.977,
        "meta_mean_anomaly": 334.577,
        "meta_ephemeris_type": 0,
        "meta_classification_type": "U",
        "meta_norad_cat_id": 34878,
        "meta_element_set_no": 999,
        "meta_rev_at_epoch": 81189,
        "meta_bstar": 0.00087629621,
        "meta_mean_motion_dot": 8.79e-06,
        "meta_mean_motion_ddot": 0,
        "tle_line1": "1 34878U 93036ACR 25340.49755641  .00000879  00000+0  87630-3 0  9996",
        "tle_line2": "2 34878  73.9646  57.2251 0435242  41.9770 334.5770 13.44180688811896"
      },
      "geometry": {
        "type": "Point",
        "coordinates": [
          -127.35149483068757,
          7.891442059521002
        ]
      }
    },
    {
      "type": "Feature",
      "properties": {
        "norad_id": 34882,
        "name": "COSMOS 2251 DEB",
        "group": "cosmos-2251-debris",
        "lat": 58.124266712159226,
        "lon": 27.37699969228262,
        "alt_km": 706.3499389781327,
        "timestamp": "2025-12-07T22:37:43.477424+00:00",
        "meta_object_name": "COSMOS 2251 DEB",
        "meta_object_id": "1993-036ACV",
        "meta_epoch": "2025-12-04T16:53:13.957728",
        "meta_mean_motion": 14.61571814,
        "meta_eccentricity": 0.00824762,
        "meta_inclination": 74.0468,
        "meta_ra_of_asc_node": 240.9544,
        "meta_arg_of_pericenter": 9.9257,
        "meta_mean_anomaly": 350.3513,
        "meta_ephemeris_type": 0,
        "meta_classification_type": "U",
        "meta_norad_cat_id": 34882,
        "meta_element_set_no": 999,
        "meta_rev_at_epoch": 88407,
        "meta_bstar": 0.0003857555,
        "meta_mean_motion_dot": 1.979e-05,
        "meta_mean_motion_ddot": 0,
        "tle_line1": "1 34882U 93036ACV 25338.70363377  .00001979  00000+0  38576-3 0  9990",
        "tle_line2": "2 34882  74.0468 240.9544 0082476   9.9257 350.3513 14.61571814884078"
      },
      "geometry": {
        "type": "Point",
        "coordinates": [
          27.37699969228262,
          58.124266712159226
        ]
      }
    },
    {
      "type": "Feature",
      "properties": {
        "norad_id": 34883,
        "name": "COSMOS 2251 DEB",
        "group": "cosmos-2251-debris",
        "lat": -17.279270006298926,
        "lon": 66.60849727598242,
        "alt_km": 719.1884200662544,
        "timestamp": "2025-12-07T22:37:43.477434+00:00",
        "meta_object_name": "COSMOS 2251 DEB",
        "meta_object_id": "1993-036ACW",
        "meta_epoch": "2025-12-07T06:10:00.230304",
        "meta_mean_motion": 14.51192807,
        "meta_eccentricity": 0.00951496,
        "meta_inclination": 74.202,
        "meta_ra_of_asc_node": 72.9382,
        "meta_arg_of_pericenter": 259.0369,
        "meta_mean_anomaly": 100.0078,
        "meta_ephemeris_type": 0,
        "meta_classification_type": "U",
        "meta_norad_cat_id": 34883,
        "meta_element_set_no": 999,
        "meta_rev_at_epoch": 86360,
        "meta_bstar": 0.0070346389,
        "meta_mean_motion_dot": 0.00029724,
        "meta_mean_motion_ddot": 0,
        "tle_line1": "1 34883U 93036ACW 25341.25694711  .00029724  00000+0  70346-2 0  9992",
        "tle_line2": "2 34883  74.2020  72.9382 0095149 259.0369 100.0078 14.51192807863603"
      },
      "geometry": {
        "type": "Point",
        "coordinates": [
          66.60849727598242,
          -17.279270006298926
        ]
      }
    },
    {
      "type": "Feature",
      "properties": {
        "norad_id": 34884,
        "name": "COSMOS 2251 DEB",
        "group": "cosmos-2251-debris",
        "lat": -28.627612557887737,
        "lon": 57.351018739034615,
        "alt_km": 605.7478377146745,
        "timestamp": "2025-12-07T22:37:43.477445+00:00",
        "meta_object_name": "COSMOS 2251 DEB",
        "meta_object_id": "1993-036ACX",
        "meta_epoch": "2025-12-07T05:09:04.782816",
        "meta_mean_motion": 14.89654543,
        "meta_eccentricity": 0.00024261,
        "meta_inclination": 74.0181,
        "meta_ra_of_asc_node": 67.8085,
        "meta_arg_of_pericenter": 116.0631,
        "meta_mean_anomaly": 270.442,
        "meta_ephemeris_type": 0,
        "meta_classification_type": "U",
        "meta_norad_cat_id": 34884,
        "meta_element_set_no": 999,
        "meta_rev_at_epoch": 87723,
        "meta_bstar": 0.0040958176,
        "meta_mean_motion_dot": 0.00039362,
        "meta_mean_motion_ddot": 0,
        "tle_line1": "1 34884U 93036ACX 25341.21463869  .00039362  00000+0  40958-2 0  9992",
        "tle_line2": "2 34884  74.0181  67.8085 0002426 116.0631 270.4420 14.89654543877231"
      },
      "geometry": {
        "type": "Point",
        "coordinates": [
          57.351018739034615,
          -28.627612557887737
        ]
      }
    },
    {
      "type": "Feature",
      "properties": {
        "norad_id": 34885,
        "name": "COSMOS 2251 DEB",
        "group": "cosmos-2251-debris",
        "lat": 20.491993222774106,
        "lon": 5.910234411289934,
        "alt_km": 725.752214920165,
        "timestamp": "2025-12-07T22:37:43.477455+00:00",
        "meta_object_name": "COSMOS 2251 DEB",
        "meta_object_id": "1993-036ACY",
        "meta_epoch": "2025-12-07T00:59:26.071872",
        "meta_mean_motion": 14.51459394,
        "meta_eccentricity": 0.0015393,
        "meta_inclination": 74.0305,
        "meta_ra_of_asc_node": 193.7506,
        "meta_arg_of_pericenter": 279.3037,
        "meta_mean_anomaly": 210.2622,
        "meta_ephemeris_type": 0,
        "meta_classification_type": "U",
        "meta_norad_cat_id": 34885,
        "meta_element_set_no": 999,
        "meta_rev_at_epoch": 87396,
        "meta_bstar": 0.001036482,
        "meta_mean_motion_dot": 4.12e-05,
        "meta_mean_motion_ddot": 0,
        "tle_line1": "1 34885U 93036ACY 25341.04127398  .00004120  00000+0  10365-2 0  9991",
        "tle_line2": "2 34885  74.0305 193.7506 0015393 279.3037 210.2622 14.51459394873965"
      },
      "geometry": {
        "type": "Point",
        "coordinates": [
          5.910234411289934,
          20.491993222774106
        ]
      }
    }
  ]
}